{"fetched_at":"2026-07-08T17:59:23.476Z","source":"https://celestrak.org/NORAD/elements/gp.php?GROUP=kuiper&FORMAT=JSON","constellation":"kuiper","records":[{"OBJECT_NAME":"KUIPER-00438","OBJECT_ID":"2026-098X","EPOCH":"2026-07-08T12:00:02.000160","CLASSIFICATION_TYPE":"U","MEAN_MOTION":15.27942053,"ECCENTRICITY":0.0005871,"INCLINATION":51.8766,"RA_OF_ASC_NODE":325.8291,"ARG_OF_PERICENTER":254.2063,"MEAN_ANOMALY":334.1821,"EPHEMERIS_TYPE":0,"NORAD_CAT_ID":68940,"ELEMENT_SET_NO":999,"REV_AT_EPOCH":570,"BSTAR":-0.065868,"MEAN_MOTION_DOT":-0.01654016,"MEAN_MOTION_DDOT":0},{"OBJECT_NAME":"KUIPER-00439","OBJECT_ID":"2026-098Y","EPOCH":"2026-07-08T00:23:35.282112","CLASSIFICATION_TYPE":"U","MEAN_MOTION":15.3080219,"ECCENTRICITY":0.0004646,"INCLINATION":51.8773,"RA_OF_ASC_NODE":328.3416,"ARG_OF_PERICENTER":252.303,"MEAN_ANOMALY":107.7446,"EPHEMERIS_TYPE":0,"NORAD_CAT_ID":68941,"ELEMENT_SET_NO":999,"REV_AT_EPOCH":1053,"BSTAR":-0.0098384,"MEAN_MOTION_DOT":-0.00286558,"MEAN_MOTION_DDOT":0},{"OBJECT_NAME":"KUIPER-00440","OBJECT_ID":"2026-098Z","EPOCH":"2026-07-08T09:07:40.321920","CLASSIFICATION_TYPE":"U","MEAN_MOTION":15.31428622,"ECCENTRICITY":0.0003071,"INCLINATION":51.8802,"RA_OF_ASC_NODE":326.2923,"ARG_OF_PERICENTER":266.0107,"MEAN_ANOMALY":94.0526,"EPHEMERIS_TYPE":0,"NORAD_CAT_ID":68942,"ELEMENT_SET_NO":999,"REV_AT_EPOCH":1059,"BSTAR":0.0006864,"MEAN_MOTION_DOT":0.00020835,"MEAN_MOTION_DDOT":0},{"OBJECT_NAME":"KUIPER-00442","OBJECT_ID":"2026-098AA","EPOCH":"2026-07-08T09:51:23.044896","CLASSIFICATION_TYPE":"U","MEAN_MOTION":15.34393638,"ECCENTRICITY":0.0003596,"INCLINATION":51.88,"RA_OF_ASC_NODE":325.7607,"ARG_OF_PERICENTER":227.5898,"MEAN_ANOMALY":132.4783,"EPHEMERIS_TYPE":0,"NORAD_CAT_ID":68943,"ELEMENT_SET_NO":999,"REV_AT_EPOCH":1060,"BSTAR":0.00039037,"MEAN_MOTION_DOT":0.00012845,"MEAN_MOTION_DDOT":0},{"OBJECT_NAME":"KUIPER-00446","OBJECT_ID":"2026-098AB","EPOCH":"2026-07-08T10:06:57.023712","CLASSIFICATION_TYPE":"U","MEAN_MOTION":15.32561386,"ECCENTRICITY":0.0005095,"INCLINATION":51.8774,"RA_OF_ASC_NODE":325.8023,"ARG_OF_PERICENTER":216.8501,"MEAN_ANOMALY":143.2134,"EPHEMERIS_TYPE":0,"NORAD_CAT_ID":68944,"ELEMENT_SET_NO":999,"REV_AT_EPOCH":1060,"BSTAR":0.00014614,"MEAN_MOTION_DOT":0.00004295,"MEAN_MOTION_DDOT":0},{"OBJECT_NAME":"KUIPER-00451","OBJECT_ID":"2026-098AC","EPOCH":"2026-07-08T12:00:02.000160","CLASSIFICATION_TYPE":"U","MEAN_MOTION":14.99492811,"ECCENTRICITY":0.0009347,"INCLINATION":51.8993,"RA_OF_ASC_NODE":329.4804,"ARG_OF_PERICENTER":225.8122,"MEAN_ANOMALY":311.3364,"EPHEMERIS_TYPE":0,"NORAD_CAT_ID":68945,"ELEMENT_SET_NO":999,"REV_AT_EPOCH":541,"BSTAR":-0.07447,"MEAN_MOTION_DOT":-0.00859288,"MEAN_MOTION_DDOT":0},{"OBJECT_NAME":"KUIPER-00452","OBJECT_ID":"2026-098AD","EPOCH":"2026-07-08T08:26:57.914016","CLASSIFICATION_TYPE":"U","MEAN_MOTION":15.36038654,"ECCENTRICITY":0.0003007,"INCLINATION":51.8776,"RA_OF_ASC_NODE":325.3592,"ARG_OF_PERICENTER":228.0531,"MEAN_ANOMALY":132.0199,"EPHEMERIS_TYPE":0,"NORAD_CAT_ID":68946,"ELEMENT_SET_NO":999,"REV_AT_EPOCH":1060,"BSTAR":0.00073211,"MEAN_MOTION_DOT":0.00025797,"MEAN_MOTION_DDOT":0},{"OBJECT_NAME":"KUIPER-00453","OBJECT_ID":"2026-098AE","EPOCH":"2026-07-08T09:08:25.493568","CLASSIFICATION_TYPE":"U","MEAN_MOTION":15.37388965,"ECCENTRICITY":0.0003464,"INCLINATION":51.8771,"RA_OF_ASC_NODE":324.8153,"ARG_OF_PERICENTER":304.6478,"MEAN_ANOMALY":55.4182,"EPHEMERIS_TYPE":0,"NORAD_CAT_ID":68947,"ELEMENT_SET_NO":999,"REV_AT_EPOCH":1061,"BSTAR":0.0005977,"MEAN_MOTION_DOT":0.00021925,"MEAN_MOTION_DDOT":0},{"OBJECT_NAME":"KUIPER-00454","OBJECT_ID":"2026-098AF","EPOCH":"2026-07-08T12:00:02.000160","CLASSIFICATION_TYPE":"U","MEAN_MOTION":14.93111846,"ECCENTRICITY":0.0013521,"INCLINATION":51.896,"RA_OF_ASC_NODE":330.2826,"ARG_OF_PERICENTER":217.9863,"MEAN_ANOMALY":345.0117,"EPHEMERIS_TYPE":0,"NORAD_CAT_ID":68948,"ELEMENT_SET_NO":999,"REV_AT_EPOCH":494,"BSTAR":-0.0094825,"MEAN_MOTION_DOT":-0.0009891,"MEAN_MOTION_DDOT":0},{"OBJECT_NAME":"KUIPER-00455","OBJECT_ID":"2026-098AG","EPOCH":"2026-07-08T12:00:02.000160","CLASSIFICATION_TYPE":"U","MEAN_MOTION":14.98760007,"ECCENTRICITY":0.0016712,"INCLINATION":51.8888,"RA_OF_ASC_NODE":329.6258,"ARG_OF_PERICENTER":221.1643,"MEAN_ANOMALY":349.5134,"EPHEMERIS_TYPE":0,"NORAD_CAT_ID":68949,"ELEMENT_SET_NO":999,"REV_AT_EPOCH":548,"BSTAR":-0.0063451,"MEAN_MOTION_DOT":-0.00076907,"MEAN_MOTION_DDOT":0},{"OBJECT_NAME":"KUIPER-00458","OBJECT_ID":"2026-098AH","EPOCH":"2026-07-08T09:44:51.906912","CLASSIFICATION_TYPE":"U","MEAN_MOTION":15.3667024,"ECCENTRICITY":0.0002864,"INCLINATION":51.8783,"RA_OF_ASC_NODE":324.9897,"ARG_OF_PERICENTER":266.0841,"MEAN_ANOMALY":93.9819,"EPHEMERIS_TYPE":0,"NORAD_CAT_ID":68950,"ELEMENT_SET_NO":999,"REV_AT_EPOCH":1061,"BSTAR":0.00043906,"MEAN_MOTION_DOT":0.00015614,"MEAN_MOTION_DDOT":0},{"OBJECT_NAME":"KUIPER-00282","OBJECT_ID":"2026-118A","EPOCH":"2026-07-08T12:00:02.000160","CLASSIFICATION_TYPE":"U","MEAN_MOTION":15.28466591,"ECCENTRICITY":0.0011348,"INCLINATION":51.8641,"RA_OF_ASC_NODE":311.0627,"ARG_OF_PERICENTER":270.0226,"MEAN_ANOMALY":273.7377,"EPHEMERIS_TYPE":0,"NORAD_CAT_ID":69267,"ELEMENT_SET_NO":999,"REV_AT_EPOCH":514,"BSTAR":-0.02962,"MEAN_MOTION_DOT":-0.00775521,"MEAN_MOTION_DDOT":0},{"OBJECT_NAME":"KUIPER-00383","OBJECT_ID":"2026-118B","EPOCH":"2026-07-08T12:00:02.000160","CLASSIFICATION_TYPE":"U","MEAN_MOTION":15.33110766,"ECCENTRICITY":0.0009079,"INCLINATION":51.8601,"RA_OF_ASC_NODE":310.9511,"ARG_OF_PERICENTER":274.1628,"MEAN_ANOMALY":332.5414,"EPHEMERIS_TYPE":0,"NORAD_CAT_ID":69268,"ELEMENT_SET_NO":999,"REV_AT_EPOCH":573,"BSTAR":-0.0010073,"MEAN_MOTION_DOT":-0.00032983,"MEAN_MOTION_DDOT":0},{"OBJECT_NAME":"KUIPER-00527","OBJECT_ID":"2026-118C","EPOCH":"2026-07-08T09:07:08.531040","CLASSIFICATION_TYPE":"U","MEAN_MOTION":15.34408502,"ECCENTRICITY":0.0008734,"INCLINATION":51.8617,"RA_OF_ASC_NODE":311.4208,"ARG_OF_PERICENTER":260.4177,"MEAN_ANOMALY":99.5822,"EPHEMERIS_TYPE":0,"NORAD_CAT_ID":69269,"ELEMENT_SET_NO":999,"REV_AT_EPOCH":723,"BSTAR":0.00036789,"MEAN_MOTION_DOT":0.00012097,"MEAN_MOTION_DDOT":0},{"OBJECT_NAME":"KUIPER-00562","OBJECT_ID":"2026-118D","EPOCH":"2026-07-08T08:40:38.885952","CLASSIFICATION_TYPE":"U","MEAN_MOTION":15.37975514,"ECCENTRICITY":0.0000266,"INCLINATION":51.8721,"RA_OF_ASC_NODE":310.5924,"ARG_OF_PERICENTER":91.7856,"MEAN_ANOMALY":268.3161,"EPHEMERIS_TYPE":0,"NORAD_CAT_ID":69270,"ELEMENT_SET_NO":999,"REV_AT_EPOCH":724,"BSTAR":0.00082603,"MEAN_MOTION_DOT":0.00031076,"MEAN_MOTION_DDOT":0},{"OBJECT_NAME":"KUIPER-00570","OBJECT_ID":"2026-118E","EPOCH":"2026-07-08T12:00:02.000160","CLASSIFICATION_TYPE":"U","MEAN_MOTION":15.14599702,"ECCENTRICITY":0.0009125,"INCLINATION":51.8703,"RA_OF_ASC_NODE":311.5603,"ARG_OF_PERICENTER":275.9398,"MEAN_ANOMALY":347.4582,"EPHEMERIS_TYPE":0,"NORAD_CAT_ID":69271,"ELEMENT_SET_NO":999,"REV_AT_EPOCH":588,"BSTAR":-0.064567,"MEAN_MOTION_DOT":-0.01116876,"MEAN_MOTION_DDOT":0}]}
