KUIPER-00438            
1 68940U 26098X   26189.50002315 -.01654016  00000+0 -65868-1 0  9992
2 68940  51.8766 325.8291 0005871 254.2063 334.1821 15.27942053  5707
KUIPER-00439            
1 68941U 26098Y   26189.01638058 -.00286558  00000+0 -98384-2 0  9999
2 68941  51.8773 328.3416 0004646 252.3030 107.7446 15.30802190 10530
KUIPER-00440            
1 68942U 26098Z   26189.38032780  .00020835  00000+0  68640-3 0  9995
2 68942  51.8802 326.2923 0003071 266.0107  94.0526 15.31428622 10590
KUIPER-00442            
1 68943U 26098AA  26189.41068339  .00012845  00000+0  39037-3 0  9999
2 68943  51.8800 325.7607 0003596 227.5898 132.4783 15.34393638 10608
KUIPER-00446            
1 68944U 26098AB  26189.42149333  .00004295  00000+0  14614-3 0  9999
2 68944  51.8774 325.8023 0005095 216.8501 143.2134 15.32561386 10605
KUIPER-00451            
1 68945U 26098AC  26189.50002315 -.00859288  00000+0 -74470-1 0  9993
2 68945  51.8993 329.4804 0009347 225.8122 311.3364 14.99492811  5413
KUIPER-00452            
1 68946U 26098AD  26189.35205919  .00025797  00000+0  73211-3 0  9994
2 68946  51.8776 325.3592 0003007 228.0531 132.0199 15.36038654 10602
KUIPER-00453            
1 68947U 26098AE  26189.38085062  .00021925  00000+0  59770-3 0  9996
2 68947  51.8771 324.8153 0003464 304.6478  55.4182 15.37388965 10618
KUIPER-00454            
1 68948U 26098AF  26189.50002315 -.00098910  00000+0 -94825-2 0  9990
2 68948  51.8960 330.2826 0013521 217.9863 345.0117 14.93111846  4944
KUIPER-00455            
1 68949U 26098AG  26189.50002315 -.00076907  00000+0 -63451-2 0  9994
2 68949  51.8888 329.6258 0016712 221.1643 349.5134 14.98760007  5485
KUIPER-00458            
1 68950U 26098AH  26189.40615633  .00015614  00000+0  43906-3 0  9998
2 68950  51.8783 324.9897 0002864 266.0841  93.9819 15.36670240 10612
KUIPER-00282            
1 69267U 26118A   26189.50002315 -.00775521  00000+0 -29620-1 0  9998
2 69267  51.8641 311.0627 0011348 270.0226 273.7377 15.28466591  5146
KUIPER-00383            
1 69268U 26118B   26189.50002315 -.00032983  00000+0 -10073-2 0  9990
2 69268  51.8601 310.9511 0009079 274.1628 332.5414 15.33110766  5739
KUIPER-00527            
1 69269U 26118C   26189.37995985  .00012097  00000+0  36789-3 0  9995
2 69269  51.8617 311.4208 0008734 260.4177  99.5822 15.34408502  7239
KUIPER-00562            
1 69270U 26118D   26189.36156118  .00031076  00000+0  82603-3 0  9997
2 69270  51.8721 310.5924 0000266  91.7856 268.3161 15.37975514  7241
KUIPER-00570            
1 69271U 26118E   26189.50002315 -.01116876  00000+0 -64567-1 0  9995
2 69271  51.8703 311.5603 0009125 275.9398 347.4582 15.14599702  5887
